ONEWEB-0161             
1 48053U 21025M   25222.89758913  .00000317  00000+0  83255-3 0  9999
2 48053  87.8981  21.8649 0001596  96.4587 263.6724 13.13472590212777
ONEWEB-0158             
1 48054U 21025N   25223.16167947 -.00000324  00000+0 -92133-3 0  9997
2 48054  87.8981  21.7919 0001948  94.0144 266.1208 13.13468305212933
ONEWEB-0157             
1 48055U 21025P   25223.18707397  .00000150  00000+0  37500-3 0  9991
2 48055  87.8977  21.7963 0001337  98.0700 262.0581 13.13470696212870
ONEWEB-0162             
1 48056U 21025Q   25222.93470440 -.00000314  00000+0 -89582-3 0  9991
2 48056  87.8981  21.8450 0001738  95.2703 264.8624 13.13470225212815
ONEWEB-0155             
1 48057U 21025R   25223.17013504 -.00000234  00000+0 -67502-3 0  9992
2 48057  87.8978  21.8063 0001636  88.9643 271.1673 13.13469042212989
ONEWEB-0149             
1 48058U 21025S   25223.19215575  .00000273  00000+0  71379-3 0  9995
2 48058  87.8977  21.7963 0001847 101.4058 258.7279 13.13470466212796
ONEWEB-0148             
1 48059U 21025T   25223.15490037 -.00000273  00000+0 -78254-3 0  9991
2 48059  87.8979  21.8279 0001718 115.5741 244.5565 13.13468503212916
ONEWEB-0160             
1 48060U 21025U   25223.17184364 -.00000255  00000+0 -73333-3 0  9991
2 48060  87.8979  21.8221 0002584  88.4147 271.7278 13.13470013212861
ONEWEB-0163             
1 48061U 21025V   25223.15660505 -.00000329  00000+0 -93486-3 0  9999
2 48061  87.8978  21.8052 0001466  94.8828 265.2468 13.13469968212987
ONEWEB-0159             
1 48062U 21025W   25223.22431015 -.00000038  00000+0 -13950-3 0  9995
2 48062  87.8980  21.7734 0001564  98.8970 261.2336 13.13470380212911
ONEWEB-0164             
1 48063U 21025X   25223.20569631  .00000338  00000+0  89015-3 0  9996
2 48063  87.8978  21.7871 0001810  92.8829 267.2508 13.13470370212895
ONEWEB-0167             
1 48064U 21025Y   25223.15745290 -.00000234  00000+0 -67578-3 0  9995
2 48064  87.8987  21.8296 0001328  69.1033 291.0238 13.13470562212872
ONEWEB-0166             
1 48065U 21025Z   25223.18030404 -.00000050  00000+0 -17167-3 0  9998
2 48065  87.8974  21.7766 0001739  99.9621 260.1704 13.13470924212956
ONEWEB-0151             
1 48066U 21025AA  25223.18199625 -.00000042  00000+0 -14995-3 0  9997
2 48066  87.8979  21.8003 0001735  89.7245 270.4083 13.13470523212894
ONEWEB-0170             
1 48067U 21025AB  25223.19046155  .00000219  00000+0  56591-3 0  9990
2 48067  87.8980  21.8045 0002058  81.8499 278.2864 13.13471084212858
ONEWEB-0168             
1 48068U 21025AC  25223.17521280 -.00000194  00000+0 -56717-3 0  9990
2 48068  87.8981  21.7888 0001605  96.2017 263.9295 13.13474366212863
ONEWEB-0173             
1 48069U 21025AD  25223.16675811 -.00000308  00000+0 -87890-3 0  9993
2 48069  87.8980  21.7988 0001348  88.8331 271.2953 13.13470152213104
